STARLINK-35916          
1 66504U 25263V   26067.81924720  .00031780  00000+0  11589-2 0  9997
2 66504  42.9965 359.2903 0000642 328.5572  31.5241 15.27594257 18724
2025-313BE              
1 67482U 25313BE  26068.69721505  .00077178  00000+0  26504-2 0  9996
2 67482  97.3989 145.3568 0007208 335.3714  24.7181 15.29801687  7972
